start=new Date('2022-05-11T00:00:00.000Z').valueOf();
sats=[{"SEMIMAJOR_AXIS":"6925.378","TLE_LINE1":"1 46149U 20057AJ  22130.93245199 -.00000222  00000-0  39776-5 0  9992","PERIOD":"95.593","NORAD_CAT_ID":"46149","DECAY_DATE":null,"MEAN_ANOMALY":"304.9209","APOAPSIS":"548.601","ELEMENT_SET_NO":"999","MEAN_MOTION_DDOT":"0.0000000000000","PERIAPSIS":"545.884","RCS_SIZE":"LARGE","TIME_SYSTEM":"UTC","TLE_LINE2":"2 46149  53.0554  95.8910 0001962  55.1964 304.9209 15.06390500 96795","COUNTRY_CODE":"US","SITE":"AFETR","INCLINATION":"53.0554","REV_AT_EPOCH":"9679","EPHEMERIS_TYPE":"0","LAUNCH_DATE":"2020-08-18","RA_OF_ASC_NODE":"95.8910","OBJECT_NAME":"STARLINK-1620","ECCENTRICITY":"0.00019620","BSTAR":"0.00000397760000","ARG_OF_PERICENTER":"55.1964","MEAN_MOTION":"15.06390500","EPOCH":"2022-05-10T22:22:43.851936","FILE":"3439673","GP_ID":"203225659","REF_FRAME":"TEME","MEAN_MOTION_DOT":"-0.00000222","CLASSIFICATION_TYPE":"U","OBJECT_ID":"2020-057AJ","OBJECT_TYPE":"PAYLOAD","MEAN_ELEMENT_THEORY":"SGP4","CENTER_NAME":"EARTH"},{"INCLINATION":"53.0543","EPHEMERIS_TYPE":"0","REV_AT_EPOCH":"9524","RA_OF_ASC_NODE":"115.9021","LAUNCH_DATE":"2020-08-18","OBJECT_NAME":"STARLINK-1629","ECCENTRICITY":"0.00019650","BSTAR":"0.00005423300000","ARG_OF_PERICENTER":"40.5365","FILE":"3439673","MEAN_MOTION":"15.06392195","EPOCH":"2022-05-10T22:14:46.397760","REF_FRAME":"TEME","GP_ID":"203224408","MEAN_MOTION_DOT":"0.00000526","MEAN_ELEMENT_THEORY":"SGP4","OBJECT_TYPE":"PAYLOAD","OBJECT_ID":"2020-057AK","CLASSIFICATION_TYPE":"U","CENTER_NAME":"EARTH","NORAD_CAT_ID":"46150","PERIOD":"95.593","TLE_LINE1":"1 46150U 20057AK  22130.92692590  .00000526  00000-0  54233-4 0  9994","SEMIMAJOR_AXIS":"6925.372","DECAY_DATE":null,"MEAN_ANOMALY":"319.5770","ELEMENT_SET_NO":"999","APOAPSIS":"548.598","MEAN_MOTION_DDOT":"0.0000000000000","PERIAPSIS":"545.877","RCS_SIZE":"LARGE","TIME_SYSTEM":"UTC","TLE_LINE2":"2 46150  53.0543 115.9021 0001965  40.5365 319.5770 15.06392195 95244","SITE":"AFETR","COUNTRY_CODE":"US"},{"ECCENTRICITY":"0.00020870","BSTAR":"0.00003043700000","INCLINATION":"53.0545","OBJECT_NAME":"STARLINK-1631","LAUNCH_DATE":"2020-08-18","RA_OF_ASC_NODE":"96.0093","REV_AT_EPOCH":"9551","EPHEMERIS_TYPE":"0","CLASSIFICATION_TYPE":"U","OBJECT_ID":"2020-057AL","OBJECT_TYPE":"PAYLOAD","MEAN_ELEMENT_THEORY":"SGP4","MEAN_MOTION_DOT":"0.00000172","CENTER_NAME":"EARTH","ARG_OF_PERICENTER":"65.5157","GP_ID":"203224658","REF_FRAME":"TEME","MEAN_MOTION":"15.06400873","EPOCH":"2022-05-10T21:40:15.909888","FILE":"3439673","MEAN_ANOMALY":"294.6049","ELEMENT_SET_NO":"999","APOAPSIS":"548.656","DECAY_DATE":null,"SEMIMAJOR_AXIS":"6925.346","TLE_LINE1":"1 46151U 20057AL  22130.90296192  .00000172  00000-0  30437-4 0  9998","PERIOD":"95.592","NORAD_CAT_ID":"46151","TLE_LINE2":"2 46151  53.0545  96.0093 0002087  65.5157 294.6049 15.06400873 95512","TIME_SYSTEM":"UTC","COUNTRY_CODE":"US","SITE":"AFETR","PERIAPSIS":"545.766","MEAN_MOTION_DDOT":"0.0000000000000","RCS_SIZE":"LARGE"},{"MEAN_ANOMALY":"301.8653","APOAPSIS":"548.596","ELEMENT_SET_NO":"999","PERIOD":"95.592","NORAD_CAT_ID":"46152","SEMIMAJOR_AXIS":"6925.340","TLE_LINE1":"1 46152U 20057AM  22130.68733370  .00001020  00000-0  87350-4 0  9997","DECAY_DATE":null,"TLE_LINE2":"2 46152  53.0543 116.9882 0002008  58.2532 301.8653 15.06402663 95205","TIME_SYSTEM":"UTC","SITE":"AFETR","COUNTRY_CODE":"US","MEAN_MOTION_DDOT":"0.0000000000000","PERIAPSIS":"545.815","RCS_SIZE":"LARGE","ECCENTRICITY":"0.00020080","BSTAR":"0.00008735000000","INCLINATION":"53.0543","EPHEMERIS_TYPE":"0","REV_AT_EPOCH":"9520","RA_OF_ASC_NODE":"116.9882","LAUNCH_DATE":"2020-08-18","OBJECT_NAME":"STARLINK-1634","MEAN_MOTION_DOT":"0.00001020","OBJECT_TYPE":"PAYLOAD","OBJECT_ID":"2020-057AM","MEAN_ELEMENT_THEORY":"SGP4","CLASSIFICATION_TYPE":"U","CENTER_NAME":"EARTH","ARG_OF_PERICENTER":"58.2532","FILE":"3439673","MEAN_MOTION":"15.06402663","EPOCH":"2022-05-10T16:29:45.631680","REF_FRAME":"TEME","GP_ID":"203225410"},{"CENTER_NAME":"EARTH","MEAN_MOTION_DOT":"0.00000110","OBJECT_TYPE":"PAYLOAD","OBJECT_ID":"2020-057AN","MEAN_ELEMENT_THEORY":"SGP4","CLASSIFICATION_TYPE":"U","FILE":"3439673","MEAN_MOTION":"15.06399923","EPOCH":"2022-05-10T22:06:47.943072","REF_FRAME":"TEME","GP_ID":"203226159","ARG_OF_PERICENTER":"57.7789","BSTAR":"0.00002629000000","ECCENTRICITY":"0.00020750","EPHEMERIS_TYPE":"0","REV_AT_EPOCH":"9551","RA_OF_ASC_NODE":"95.9449","LAUNCH_DATE":"2020-08-18","OBJECT_NAME":"STARLINK-1636","INCLINATION":"53.0554","SITE":"AFETR","COUNTRY_CODE":"US","TLE_LINE2":"2 46153  53.0554  95.9449 0002075  57.7789 302.3401 15.06399923 95510","TIME_SYSTEM":"UTC","RCS_SIZE":"LARGE","PERIAPSIS":"545.777","MEAN_MOTION_DDOT":"0.0000000000000","ELEMENT_SET_NO":"999","APOAPSIS":"548.651","MEAN_ANOMALY":"302.3401","PERIOD":"95.592","NORAD_CAT_ID":"46153","TLE_LINE1":"1 46153U 20057AN  22130.92138823  .00000110  00000-0  26290-4 0  9992","SEMIMAJOR_AXIS":"6925.349","DECAY_DATE":null},{"MEAN_MOTION_DOT":"0.00000465","CLASSIFICATION_TYPE":"U","OBJECT_ID":"2020-057AP","OBJECT_TYPE":"PAYLOAD","MEAN_ELEMENT_THEORY":"SGP4","CENTER_NAME":"EARTH","ARG_OF_PERICENTER":"55.9879","MEAN_MOTION":"15.06396937","EPOCH":"2022-05-10T15:59:14.703360","FILE":"3439673","GP_ID":"203224908","REF_FRAME":"TEME","ECCENTRICITY":"0.00018980","BSTAR":"0.00005011200000","INCLINATION":"53.0557","REV_AT_EPOCH":"9534","EPHEMERIS_TYPE":"0","RA_OF_ASC_NODE":"107.0916","LAUNCH_DATE":"2020-08-18","OBJECT_NAME":"STARLINK-1642","TIME_SYSTEM":"UTC","TLE_LINE2":"2 46154  53.0557 107.0916 0001898  55.9879 304.1290 15.06396937 95349","COUNTRY_CODE":"US","SITE":"AFETR","MEAN_MOTION_DDOT":"0.0000000000000","PERIAPSIS":"545.909","RCS_SIZE":"LARGE","MEAN_ANOMALY":"304.1290","ELEMENT_SET_NO":"999","APOAPSIS":"548.537","SEMIMAJOR_AXIS":"6925.358","TLE_LINE1":"1 46154U 20057AP  22130.66614240  .00000465  00000-0  50112-4 0  9999","PERIOD":"95.592","NORAD_CAT_ID":"46154","DECAY_DATE":null},{"COUNTRY_CODE":"US","SITE":"AFETR","TLE_LINE2":"2 46155  53.0567  77.5550 0001769  48.2363 311.8776 15.06397410 96988","TIME_SYSTEM":"UTC","RCS_SIZE":"LARGE","PERIAPSIS":"545.996","MEAN_MOTION_DDOT":"0.0000000000000","APOAPSIS":"548.447","ELEMENT_SET_NO":"999","MEAN_ANOMALY":"311.8776","TLE_LINE1":"1 46155U 20057AQ  22130.55832614  .00000204  00000-0  32608-4 0  9996","SEMIMAJOR_AXIS":"6925.356","NORAD_CAT_ID":"46155","PERIOD":"95.592","DECAY_DATE":null,"CENTER_NAME":"EARTH","MEAN_MOTION_DOT":"0.00000204","CLASSIFICATION_TYPE":"U","OBJECT_ID":"2020-057AQ","OBJECT_TYPE":"PAYLOAD","MEAN_ELEMENT_THEORY":"SGP4","MEAN_MOTION":"15.06397410","EPOCH":"2022-05-10T13:23:59.378496","FILE":"3439131","GP_ID":"203188478","REF_FRAME":"TEME","ARG_OF_PERICENTER":"48.2363","BSTAR":"0.00003260800000","ECCENTRICITY":"0.00017690","REV_AT_EPOCH":"9698","EPHEMERIS_TYPE":"0","RA_OF_ASC_NODE":"77.5550","LAUNCH_DATE":"2020-08-18","OBJECT_NAME":"STARLINK-1667","INCLINATION":"53.0567"},{"PERIAPSIS":"545.839","MEAN_MOTION_DDOT":"0.0000000000000","RCS_SIZE":"LARGE","TIME_SYSTEM":"UTC","TLE_LINE2":"2 46156  53.0564  96.1023 0002031  50.3917 309.7252 15.06389607 96760","SITE":"AFETR","COUNTRY_CODE":"US","DECAY_DATE":null,"PERIOD":"95.593","NORAD_CAT_ID":"46156","TLE_LINE1":"1 46156U 20057AR  22130.88085149 -.00000324  00000-0 -28168-5 0  9998","SEMIMAJOR_AXIS":"6925.380","MEAN_ANOMALY":"309.7252","APOAPSIS":"548.652","ELEMENT_SET_NO":"999","ARG_OF_PERICENTER":"50.3917","REF_FRAME":"TEME","GP_ID":"203225910","FILE":"3439673","EPOCH":"2022-05-10T21:08:25.568736","MEAN_MOTION":"15.06389607","OBJECT_TYPE":"PAYLOAD","MEAN_ELEMENT_THEORY":"SGP4","OBJECT_ID":"2020-057AR","CLASSIFICATION_TYPE":"U","MEAN_MOTION_DOT":"-0.00000324","CENTER_NAME":"EARTH","INCLINATION":"53.0564","RA_OF_ASC_NODE":"96.1023","LAUNCH_DATE":"2020-08-18","OBJECT_NAME":"STARLINK-1545","EPHEMERIS_TYPE":"0","REV_AT_EPOCH":"9676","ECCENTRICITY":"0.00020310","BSTAR":"-0.00000281680000"},{"PERIAPSIS":"545.649","MEAN_MOTION_DDOT":"0.0000000000000","RCS_SIZE":"LARGE","TIME_SYSTEM":"UTC","TLE_LINE2":"2 46157  53.0566  78.8536 0002242  50.1662 309.9524 15.06403796 95701","SITE":"AFETR","COUNTRY_CODE":"US","DECAY_DATE":null,"NORAD_CAT_ID":"46157","PERIOD":"95.592","SEMIMAJOR_AXIS":"6925.337","TLE_LINE1":"1 46157U 20057AS  22130.27082039 -.00000316  00000-0 -23238-5 0  9991","MEAN_ANOMALY":"309.9524","APOAPSIS":"548.755","ELEMENT_SET_NO":"999","ARG_OF_PERICENTER":"50.1662","REF_FRAME":"TEME","GP_ID":"203187477","FILE":"3439131","MEAN_MOTION":"15.06403796","EPOCH":"2022-05-10T06:29:58.881696","MEAN_ELEMENT_THEORY":"SGP4","OBJECT_TYPE":"PAYLOAD","OBJECT_ID":"2020-057AS","CLASSIFICATION_TYPE":"U","MEAN_MOTION_DOT":"-0.00000316","CENTER_NAME":"EARTH","INCLINATION":"53.0566","OBJECT_NAME":"STARLINK-1587","LAUNCH_DATE":"2020-08-18","RA_OF_ASC_NODE":"78.8536","EPHEMERIS_TYPE":"0","REV_AT_EPOCH":"9570","ECCENTRICITY":"0.00022420","BSTAR":"-0.00000232380000"},{"APOAPSIS":"548.455","ELEMENT_SET_NO":"999","MEAN_ANOMALY":"291.5682","DECAY_DATE":null,"PERIOD":"95.592","NORAD_CAT_ID":"46158","SEMIMAJOR_AXIS":"6925.354","TLE_LINE1":"1 46158U 20057AT  22130.26713416 -.00000236  00000-0  30670-5 0  9999","SITE":"AFETR","COUNTRY_CODE":"US","TIME_SYSTEM":"UTC","TLE_LINE2":"2 46158  53.0562  78.8749 0001784  68.5497 291.5682 15.06398193 96967","RCS_SIZE":"LARGE","PERIAPSIS":"545.984","MEAN_MOTION_DDOT":"0.0000000000000","BSTAR":"0.00000306700000","ECCENTRICITY":"0.00017840","OBJECT_NAME":"STARLINK-1589","LAUNCH_DATE":"2020-08-18","RA_OF_ASC_NODE":"78.8749","EPHEMERIS_TYPE":"0","REV_AT_EPOCH":"9696","INCLINATION":"53.0562","CENTER_NAME":"EARTH","OBJECT_TYPE":"PAYLOAD","OBJECT_ID":"2020-057AT","MEAN_ELEMENT_THEORY":"SGP4","CLASSIFICATION_TYPE":"U","MEAN_MOTION_DOT":"-0.00000236","REF_FRAME":"TEME","GP_ID":"203187727","FILE":"3439131","EPOCH":"2022-05-10T06:24:40.391424","MEAN_MOTION":"15.06398193","ARG_OF_PERICENTER":"68.5497"}];
